{
  "type": "FeatureCollection",
  "features": [
    {
      "type": "Feature",
      "properties": {
        "norad_id": 33412,
        "name": "COSMO-SKYMED 3",
        "group": "resource",
        "lat": -27.498546739752594,
        "lon": -168.35934852565035,
        "alt_km": 563.0917309694423,
        "timestamp": "2025-12-03T06:58:42.897980+00:00",
        "meta_object_name": "COSMO-SKYMED 3",
        "meta_object_id": "2008-054A",
        "meta_epoch": "2025-12-02T19:56:01.636800",
        "meta_mean_motion": 15.05203544,
        "meta_eccentricity": 0.0015354,
        "meta_inclination": 97.8472,
        "meta_ra_of_asc_node": 187.0561,
        "meta_arg_of_pericenter": 206.8996,
        "meta_mean_anomaly": 153.1435,
        "meta_ephemeris_type": 0,
        "meta_classification_type": "U",
        "meta_norad_cat_id": 33412,
        "meta_element_set_no": 999,
        "meta_rev_at_epoch": 92738,
        "meta_bstar": 0.00040811,
        "meta_mean_motion_dot": 5.774e-05,
        "meta_mean_motion_ddot": 0,
        "tle_line1": "1 33412U 08054A   25336.83057450  .00005774  00000+0  40811-3 0  9990",
        "tle_line2": "2 33412  97.8472 187.0561 0015354 206.8996 153.1435 15.05203544927388"
      },
      "geometry": {
        "type": "Point",
        "coordinates": [
          -168.35934852565035,
          -27.498546739752594
        ]
      }
    },
    {
      "type": "Feature",
      "properties": {
        "norad_id": 33446,
        "name": "YAOGAN-4",
        "group": "resource",
        "lat": 1.82002363117107,
        "lon": -92.769916418387,
        "alt_km": 613.7639885103554,
        "timestamp": "2025-12-03T06:58:42.897991+00:00",
        "meta_object_name": "YAOGAN-4",
        "meta_object_id": "2008-061A",
        "meta_epoch": "2025-12-02T19:37:56.076096",
        "meta_mean_motion": 14.82631045,
        "meta_eccentricity": 0.0014458,
        "meta_inclination": 97.9168,
        "meta_ra_of_asc_node": 267.0155,
        "meta_arg_of_pericenter": 356.4345,
        "meta_mean_anomaly": 3.6763,
        "meta_ephemeris_type": 0,
        "meta_classification_type": "U",
        "meta_norad_cat_id": 33446,
        "meta_element_set_no": 999,
        "meta_rev_at_epoch": 91656,
        "meta_bstar": 0.00026598,
        "meta_mean_motion_dot": 2.092e-05,
        "meta_mean_motion_ddot": 0,
        "tle_line1": "1 33446U 08061A   25336.81801014  .00002092  00000+0  26598-3 0  9992",
        "tle_line2": "2 33446  97.9168 267.0155 0014458 356.4345   3.6763 14.82631045916566"
      },
      "geometry": {
        "type": "Point",
        "coordinates": [
          -92.769916418387,
          1.82002363117107
        ]
      }
    },
    {
      "type": "Feature",
      "properties": {
        "norad_id": 33492,
        "name": "GOSAT (IBUKI)",
        "group": "resource",
        "lat": -27.064721651789256,
        "lon": -98.13528166829438,
        "alt_km": 675.050462639213,
        "timestamp": "2025-12-03T06:58:42.898001+00:00",
        "meta_object_name": "GOSAT (IBUKI)",
        "meta_object_id": "2009-002A",
        "meta_epoch": "2025-12-02T20:13:08.536224",
        "meta_mean_motion": 14.67549187,
        "meta_eccentricity": 9.89e-05,
        "meta_inclination": 98.0767,
        "meta_ra_of_asc_node": 85.5835,
        "meta_arg_of_pericenter": 84.3264,
        "meta_mean_anomaly": 275.8053,
        "meta_ephemeris_type": 0,
        "meta_classification_type": "U",
        "meta_norad_cat_id": 33492,
        "meta_element_set_no": 999,
        "meta_rev_at_epoch": 90266,
        "meta_bstar": 0.00023122,
        "meta_mean_motion_dot": 1.264e-05,
        "meta_mean_motion_ddot": 0,
        "tle_line1": "1 33492U 09002A   25336.84245991  .00001264  00000+0  23122-3 0  9998",
        "tle_line2": "2 33492  98.0767  85.5835 0000989  84.3264 275.8053 14.67549187902662"
      },
      "geometry": {
        "type": "Point",
        "coordinates": [
          -98.13528166829438,
          -27.064721651789256
        ]
      }
    },
    {
      "type": "Feature",
      "properties": {
        "norad_id": 35681,
        "name": "DEIMOS-1",
        "group": "resource",
        "lat": 33.599960312607706,
        "lon": 133.16704508783513,
        "alt_km": 642.424441195677,
        "timestamp": "2025-12-03T06:58:42.898012+00:00",
        "meta_object_name": "DEIMOS-1",
        "meta_object_id": "2009-041A",
        "meta_epoch": "2025-12-02T19:25:40.246176",
        "meta_mean_motion": 14.7492748,
        "meta_eccentricity": 0.000267,
        "meta_inclination": 97.7146,
        "meta_ra_of_asc_node": 137.8756,
        "meta_arg_of_pericenter": 97.7893,
        "meta_mean_anomaly": 262.3619,
        "meta_ephemeris_type": 0,
        "meta_classification_type": "U",
        "meta_norad_cat_id": 35681,
        "meta_element_set_no": 999,
        "meta_rev_at_epoch": 87793,
        "meta_bstar": 0.0001543,
        "meta_mean_motion_dot": 9.89e-06,
        "meta_mean_motion_ddot": 0,
        "tle_line1": "1 35681U 09041A   25336.80949359  .00000989  00000+0  15430-3 0  9994",
        "tle_line2": "2 35681  97.7146 137.8756 0002670  97.7893 262.3619 14.74927480877933"
      },
      "geometry": {
        "type": "Point",
        "coordinates": [
          133.16704508783513,
          33.599960312607706
        ]
      }
    },
    {
      "type": "Feature",
      "properties": {
        "norad_id": 35682,
        "name": "DUBAISAT-1",
        "group": "resource",
        "lat": -19.028166300232613,
        "lon": 110.88274497298382,
        "alt_km": 644.5459349044659,
        "timestamp": "2025-12-03T06:58:42.898023+00:00",
        "meta_object_name": "DUBAISAT-1",
        "meta_object_id": "2009-041B",
        "meta_epoch": "2025-12-02T19:39:54.891648",
        "meta_mean_motion": 14.74556819,
        "meta_eccentricity": 0.0010195,
        "meta_inclination": 97.9786,
        "meta_ra_of_asc_node": 107.646,
        "meta_arg_of_pericenter": 348.2473,
        "meta_mean_anomaly": 11.8496,
        "meta_ephemeris_type": 0,
        "meta_classification_type": "U",
        "meta_norad_cat_id": 35682,
        "meta_element_set_no": 999,
        "meta_rev_at_epoch": 87615,
        "meta_bstar": 0.0002512,
        "meta_mean_motion_dot": 1.623e-05,
        "meta_mean_motion_ddot": 0,
        "tle_line1": "1 35682U 09041B   25336.81938532  .00001623  00000+0  25120-3 0  9990",
        "tle_line2": "2 35682  97.9786 107.6460 0010195 348.2473  11.8496 14.74556819876159"
      },
      "geometry": {
        "type": "Point",
        "coordinates": [
          110.88274497298382,
          -19.028166300232613
        ]
      }
    },
    {
      "type": "Feature",
      "properties": {
        "norad_id": 35931,
        "name": "OCEANSAT-2",
        "group": "resource",
        "lat": -4.805294233121009,
        "lon": 158.15287830823917,
        "alt_km": 903.73716918227,
        "timestamp": "2025-12-03T06:58:42.898034+00:00",
        "meta_object_name": "OCEANSAT-2",
        "meta_object_id": "2009-051A",
        "meta_epoch": "2025-12-02T21:31:18.695424",
        "meta_mean_motion": 13.99626721,
        "meta_eccentricity": 0.0016624,
        "meta_inclination": 98.2231,
        "meta_ra_of_asc_node": 338.4953,
        "meta_arg_of_pericenter": 70.6026,
        "meta_mean_anomaly": 289.6936,
        "meta_ephemeris_type": 0,
        "meta_classification_type": "U",
        "meta_norad_cat_id": 35931,
        "meta_element_set_no": 999,
        "meta_rev_at_epoch": 85187,
        "meta_bstar": -7.9918e-05,
        "meta_mean_motion_dot": -1.54e-06,
        "meta_mean_motion_ddot": 0,
        "tle_line1": "1 35931U 09051A   25336.89674416 -.00000154  00000+0 -79918-4 0  9999",
        "tle_line2": "2 35931  98.2231 338.4953 0016624  70.6026 289.6936 13.99626721851871"
      },
      "geometry": {
        "type": "Point",
        "coordinates": [
          158.15287830823917,
          -4.805294233121009
        ]
      }
    },
    {
      "type": "Feature",
      "properties": {
        "norad_id": 35946,
        "name": "WORLDVIEW-2 (WV-2)",
        "group": "resource",
        "lat": 80.74425195208782,
        "lon": -65.26167447240576,
        "alt_km": 754.9746086816831,
        "timestamp": "2025-12-03T06:58:42.898045+00:00",
        "meta_object_name": "WORLDVIEW-2 (WV-2)",
        "meta_object_id": "2009-055A",
        "meta_epoch": "2025-12-02T18:51:07.643232",
        "meta_mean_motion": 14.37645081,
        "meta_eccentricity": 0.0005444,
        "meta_inclination": 98.4772,
        "meta_ra_of_asc_node": 48.0089,
        "meta_arg_of_pericenter": 90.7054,
        "meta_mean_anomaly": 269.4757,
        "meta_ephemeris_type": 0,
        "meta_classification_type": "U",
        "meta_norad_cat_id": 35946,
        "meta_element_set_no": 999,
        "meta_rev_at_epoch": 84742,
        "meta_bstar": 9.8762e-05,
        "meta_mean_motion_dot": 2.53e-06,
        "meta_mean_motion_ddot": 0,
        "tle_line1": "1 35946U 09055A   25336.78550513  .00000253  00000+0  98762-4 0  9994",
        "tle_line2": "2 35946  98.4772  48.0089 0005444  90.7054 269.4757 14.37645081847421"
      },
      "geometry": {
        "type": "Point",
        "coordinates": [
          -65.26167447240576,
          80.74425195208782
        ]
      }
    }
  ]
}